EUTELSAT 7A             
1 28187U 04008A   25222.15662944  .00000104  00000+0  00000+0 0  9991
2 28187   5.0341  75.7382 0001072  91.8160  68.5091  1.00270802 78451
EUTELSAT 174A           
1 28924U 05052A   25222.14731434  .00000009  00000+0  00000+0 0  9994
2 28924   3.4250  80.4242 0006197  58.7295  46.7158  1.00270914 71867
EUTELSAT HOTBIRD 13B    
1 29270U 06032A   25221.54834280  .00000157  00000+0  00000+0 0  9998
2 29270   0.8508  85.7889 0004118  48.8984  54.0761  1.00270340 44180
EUTELSAT HOTBIRD 13C    
1 33459U 08065A   25221.39657062 -.00000099  00000+0  00000+0 0  9990
2 33459   2.1429  82.9489 0003618  68.5907 296.8531  1.00271596 44224
EUTELSAT 36B            
1 36101U 09065A   25221.55180948  .00000113  00000+0  00000+0 0  9996
2 36101   0.0517   1.9767 0005834 137.5289  67.9085  1.00272651 57585
EUTELSAT KA-SAT 9A      
1 37258U 10069A   25221.18670869  .00000064  00000+0  00000+0 0  9996
2 37258   0.0570 304.8359 0004637 183.2395 266.0505  1.00275043 40877
EUTELSAT 7 WEST A       
1 37816U 11051A   25221.18350200 -.00000058  00000+0  00000+0 0  9996
2 37816   0.0670 337.1894 0005289 174.0685 225.4255  1.00271023 50758
EUTELSAT 16A            
1 37836U 11057A   25221.54487612  .00000105  00000+0  00000+0 0  9994
2 37836   0.0656 349.5519 0005451 147.0678  33.8000  1.00269982  4207
